{
  "type": "FeatureCollection",
  "features": [
    {
      "type": "Feature",
      "properties": {
        "norad_id": 27954,
        "name": "GALAXY 13 (HORIZONS-1)",
        "group": "intelsat",
        "lat": 0.19809611441088903,
        "lon": 97.55792845976116,
        "alt_km": 35793.30065059724,
        "timestamp": "2025-12-06T11:28:10.696753+00:00",
        "meta_object_name": "GALAXY 13 (HORIZONS-1)",
        "meta_object_id": "2003-044A",
        "meta_epoch": "2025-12-05T18:07:18.060096",
        "meta_mean_motion": 1.00273566,
        "meta_eccentricity": 0.00020545,
        "meta_inclination": 0.9175,
        "meta_ra_of_asc_node": 86.5611,
        "meta_arg_of_pericenter": 165.0331,
        "meta_mean_anomaly": 305.0494,
        "meta_ephemeris_type": 0,
        "meta_classification_type": "U",
        "meta_norad_cat_id": 27954,
        "meta_element_set_no": 999,
        "meta_rev_at_epoch": 4463,
        "meta_bstar": 0,
        "meta_mean_motion_dot": 1.42e-06,
        "meta_mean_motion_ddot": 0,
        "tle_line1": "1 27954U 03044A   25339.75507014  .00000142  00000+0  00000+0 0  9994",
        "tle_line2": "2 27954   0.9175  86.5611 0002054 165.0331 305.0494  1.00273566 44630"
      },
      "geometry": {
        "type": "Point",
        "coordinates": [
          97.55792845976116,
          0.19809611441088903
        ]
      }
    },
    {
      "type": "Feature",
      "properties": {
        "norad_id": 28358,
        "name": "INTELSAT 10-02",
        "group": "intelsat",
        "lat": -0.018529069886410596,
        "lon": -113.45118561242366,
        "alt_km": 35782.904019885,
        "timestamp": "2025-12-06T11:28:10.696765+00:00",
        "meta_object_name": "INTELSAT 10-02",
        "meta_object_id": "2004-022A",
        "meta_epoch": "2025-12-05T22:15:07.597728",
        "meta_mean_motion": 1.00269317,
        "meta_eccentricity": 0.00011875,
        "meta_inclination": 0.0378,
        "meta_ra_of_asc_node": 75.0175,
        "meta_arg_of_pericenter": 211.6401,
        "meta_mean_anomaly": 121.1109,
        "meta_ephemeris_type": 0,
        "meta_classification_type": "U",
        "meta_norad_cat_id": 28358,
        "meta_element_set_no": 999,
        "meta_rev_at_epoch": 7861,
        "meta_bstar": 0,
        "meta_mean_motion_dot": -2e-08,
        "meta_mean_motion_ddot": 0,
        "tle_line1": "1 28358U 04022A   25339.92717127 -.00000002  00000+0  00000+0 0  9993",
        "tle_line2": "2 28358   0.0378  75.0175 0001187 211.6401 121.1109  1.00269317 78619"
      },
      "geometry": {
        "type": "Point",
        "coordinates": [
          -113.45118561242366,
          -0.018529069886410596
        ]
      }
    },
    {
      "type": "Feature",
      "properties": {
        "norad_id": 28626,
        "name": "XM-3 (RHYTHM)",
        "group": "intelsat",
        "lat": -0.09509927799003573,
        "lon": 31.59216457931153,
        "alt_km": 36156.509733129176,
        "timestamp": "2025-12-06T11:28:10.696777+00:00",
        "meta_object_name": "XM-3 (RHYTHM)",
        "meta_object_id": "2005-008A",
        "meta_epoch": "2025-12-05T21:14:36.662784",
        "meta_mean_motion": 0.9895468,
        "meta_eccentricity": 0.0001111,
        "meta_inclination": 0.1562,
        "meta_ra_of_asc_node": 81.0036,
        "meta_arg_of_pericenter": 259.6806,
        "meta_mean_anomaly": 199.7449,
        "meta_ephemeris_type": 0,
        "meta_classification_type": "U",
        "meta_norad_cat_id": 28626,
        "meta_element_set_no": 999,
        "meta_rev_at_epoch": 4068,
        "meta_bstar": 0,
        "meta_mean_motion_dot": -2.66e-06,
        "meta_mean_motion_ddot": 0,
        "tle_line1": "1 28626U 05008A   25339.88514656 -.00000266  00000+0  00000+0 0  9995",
        "tle_line2": "2 28626   0.1562  81.0036 0001111 259.6806 199.7449  0.98954680 40688"
      },
      "geometry": {
        "type": "Point",
        "coordinates": [
          31.59216457931153,
          -0.09509927799003573
        ]
      }
    },
    {
      "type": "Feature",
      "properties": {
        "norad_id": 28659,
        "name": "DIRECTV 8",
        "group": "intelsat",
        "lat": 0.01493957879973197,
        "lon": 128.47091642032638,
        "alt_km": 35794.680188790626,
        "timestamp": "2025-12-06T11:28:10.696790+00:00",
        "meta_object_name": "DIRECTV 8",
        "meta_object_id": "2005-019A",
        "meta_epoch": "2025-12-05T21:41:25.827360",
        "meta_mean_motion": 1.00270953,
        "meta_eccentricity": 0.00032665,
        "meta_inclination": 0.0018,
        "meta_ra_of_asc_node": 351.2733,
        "meta_arg_of_pericenter": 264.522,
        "meta_mean_anomaly": 25.4663,
        "meta_ephemeris_type": 0,
        "meta_classification_type": "U",
        "meta_norad_cat_id": 28659,
        "meta_element_set_no": 999,
        "meta_rev_at_epoch": 7513,
        "meta_bstar": 0,
        "meta_mean_motion_dot": 1.1e-07,
        "meta_mean_motion_ddot": 0,
        "tle_line1": "1 28659U 05019A   25339.90377115  .00000011  00000+0  00000+0 0  9990",
        "tle_line2": "2 28659   0.0018 351.2733 0003266 264.5220  25.4663  1.00270953 75132"
      },
      "geometry": {
        "type": "Point",
        "coordinates": [
          128.47091642032638,
          0.01493957879973197
        ]
      }
    },
    {
      "type": "Feature",
      "properties": {
        "norad_id": 28702,
        "name": "GALAXY 28 (G-28)",
        "group": "intelsat",
        "lat": 2.7365756400519707,
        "lon": 158.82246521699614,
        "alt_km": 35786.97057689065,
        "timestamp": "2025-12-06T11:28:10.696802+00:00",
        "meta_object_name": "GALAXY 28 (G-28)",
        "meta_object_id": "2005-022A",
        "meta_epoch": "2025-12-05T21:50:02.501952",
        "meta_mean_motion": 1.00271855,
        "meta_eccentricity": 0.00026283,
        "meta_inclination": 2.8012,
        "meta_ra_of_asc_node": 81.3616,
        "meta_arg_of_pericenter": 173.8076,
        "meta_mean_anomaly": 58.6106,
        "meta_ephemeris_type": 0,
        "meta_classification_type": "U",
        "meta_norad_cat_id": 28702,
        "meta_element_set_no": 999,
        "meta_rev_at_epoch": 5003,
        "meta_bstar": 0,
        "meta_mean_motion_dot": -1.8e-06,
        "meta_mean_motion_ddot": 0,
        "tle_line1": "1 28702U 05022A   25339.90975118 -.00000180  00000+0  00000+0 0  9998",
        "tle_line2": "2 28702   2.8012  81.3616 0002628 173.8076  58.6106  1.00271855 50032"
      },
      "geometry": {
        "type": "Point",
        "coordinates": [
          158.82246521699614,
          2.7365756400519707
        ]
      }
    },
    {
      "type": "Feature",
      "properties": {
        "norad_id": 29236,
        "name": "GALAXY 16 (G-16)",
        "group": "intelsat",
        "lat": -0.0011325558874568087,
        "lon": 148.50971271219825,
        "alt_km": 35790.910971438614,
        "timestamp": "2025-12-06T11:28:10.696815+00:00",
        "meta_object_name": "GALAXY 16 (G-16)",
        "meta_object_id": "2006-023A",
        "meta_epoch": "2025-12-05T21:47:10.277376",
        "meta_mean_motion": 1.00271104,
        "meta_eccentricity": 0.00029924,
        "meta_inclination": 0.0228,
        "meta_ra_of_asc_node": 208.9137,
        "meta_arg_of_pericenter": 51.0231,
        "meta_mean_anomaly": 42.8047,
        "meta_ephemeris_type": 0,
        "meta_classification_type": "U",
        "meta_norad_cat_id": 29236,
        "meta_element_set_no": 999,
        "meta_rev_at_epoch": 7103,
        "meta_bstar": 0,
        "meta_mean_motion_dot": -1.17e-06,
        "meta_mean_motion_ddot": 0,
        "tle_line1": "1 29236U 06023A   25339.90775784 -.00000117  00000+0  00000+0 0  9990",
        "tle_line2": "2 29236   0.0228 208.9137 0002992  51.0231  42.8047  1.00271104 71032"
      },
      "geometry": {
        "type": "Point",
        "coordinates": [
          148.50971271219825,
          -0.0011325558874568087
        ]
      }
    },
    {
      "type": "Feature",
      "properties": {
        "norad_id": 29494,
        "name": "DIRECTV 9S",
        "group": "intelsat",
        "lat": 1.7192833787351602,
        "lon": 146.29479719521837,
        "alt_km": 35790.856148353654,
        "timestamp": "2025-12-06T11:28:10.696827+00:00",
        "meta_object_name": "DIRECTV 9S",
        "meta_object_id": "2006-043A",
        "meta_epoch": "2025-12-05T21:46:32.836800",
        "meta_mean_motion": 1.00270515,
        "meta_eccentricity": 0.00032532,
        "meta_inclination": 1.9216,
        "meta_ra_of_asc_node": 83.2819,
        "meta_arg_of_pericenter": 172.6571,
        "meta_mean_anomaly": 44.4453,
        "meta_ephemeris_type": 0,
        "meta_classification_type": "U",
        "meta_norad_cat_id": 29494,
        "meta_element_set_no": 999,
        "meta_rev_at_epoch": 4944,
        "meta_bstar": 0,
        "meta_mean_motion_dot": -1.05e-06,
        "meta_mean_motion_ddot": 0,
        "tle_line1": "1 29494U 06043A   25339.90732450 -.00000105  00000+0  00000+0 0  9998",
        "tle_line2": "2 29494   1.9216  83.2819 0003253 172.6571  44.4453  1.00270515 49448"
      },
      "geometry": {
        "type": "Point",
        "coordinates": [
          146.29479719521837,
          1.7192833787351602
        ]
      }
    }
  ]
}